STARLINK-2022           
1 47643U 21012Z   24224.39203365  .00006445  00000+0  45104-3 0  9990
2 47643  53.0534 114.2265 0001278  84.1880 275.9255 15.06408548193036
